{
  "generated_at": "2026-06-15T12:13:40+00:00",
  "source": "celestrak.org",
  "satellite_count": 9,
  "satellites": [
    {
      "id": "terra",
      "name": "TERRA",
      "platform": "EOS",
      "sensor": "MODIS",
      "swath_km": 2330,
      "color": "#39d0d8",
      "norad": 25994,
      "tle1": "1 25994U 99068A   26166.23382523  .00000327  00000+0  75511-4 0  9994",
      "tle2": "2 25994  97.9457 215.8575 0001432 196.7910 207.7502 14.61101637409329"
    },
    {
      "id": "aqua",
      "name": "AQUA",
      "platform": "EOS",
      "sensor": "MODIS",
      "swath_km": 2330,
      "color": "#2bb673",
      "norad": 27424,
      "tle1": "1 27424U 02022A   26166.28310406  .00000653  00000+0  13966-3 0  9991",
      "tle2": "2 27424  98.4277 135.5279 0001176  53.2323  50.9789 14.62155467282992"
    },
    {
      "id": "snpp",
      "name": "SUOMI NPP",
      "platform": "JPSS",
      "sensor": "VIIRS",
      "swath_km": 3000,
      "color": "#ff8c42",
      "norad": 37849,
      "tle1": "1 37849U 11061A   26166.29644737  .00000055  00000+0  47190-4 0  9997",
      "tle2": "2 37849  98.7954 107.1854 0001641  11.4935 348.6278 14.19516984758170"
    },
    {
      "id": "noaa20",
      "name": "NOAA 20",
      "platform": "JPSS",
      "sensor": "VIIRS",
      "swath_km": 3000,
      "color": "#ffaa00",
      "norad": 43013,
      "tle1": "1 43013U 17073A   26166.30966103  .00000031  00000+0  35451-4 0  9993",
      "tle2": "2 43013  98.7772 105.7889 0000296  83.6699 276.4511 14.19511367444207"
    },
    {
      "id": "noaa21",
      "name": "NOAA 21",
      "platform": "JPSS",
      "sensor": "VIIRS",
      "swath_km": 3000,
      "color": "#ff5a3a",
      "norad": 54234,
      "tle1": "1 54234U 22150A   26166.27214703  .00000037  00000+0  38354-4 0  9991",
      "tle2": "2 54234  98.7060 105.0935 0001544 158.2994 201.8248 14.19565148186278"
    },
    {
      "id": "sentinel2a",
      "name": "SENTINEL-2A",
      "platform": "Copernicus",
      "sensor": "MSI",
      "swath_km": 290,
      "color": "#b388ff",
      "norad": 40697,
      "tle1": "1 40697U 15028A   26166.25664562  .00000019  00000+0  23856-4 0  9996",
      "tle2": "2 40697  98.5690 241.1355 0001086  89.7609 270.3699 14.30814514573451"
    },
    {
      "id": "sentinel2b",
      "name": "SENTINEL-2B",
      "platform": "Copernicus",
      "sensor": "MSI",
      "swath_km": 290,
      "color": "#9d6dff",
      "norad": 42063,
      "tle1": "1 42063U 17013A   26166.24944856  .00000141  00000+0  70611-4 0  9994",
      "tle2": "2 42063  98.5698 241.0509 0001176  87.5190 272.6128 14.30816688484366"
    },
    {
      "id": "sentinel3a",
      "name": "SENTINEL-3A",
      "platform": "Copernicus",
      "sensor": "OLCI",
      "swath_km": 1270,
      "color": "#7a4fff",
      "norad": 41335,
      "tle1": "1 41335U 16011A   26166.25292140  .00000093  00000+0  56267-4 0  9992",
      "tle2": "2 41335  98.6249 233.6643 0001390 102.3738 257.7599 14.26739467537783"
    },
    {
      "id": "sentinel3b",
      "name": "SENTINEL-3B",
      "platform": "Copernicus",
      "sensor": "OLCI",
      "swath_km": 1270,
      "color": "#5e3bff",
      "norad": 43437,
      "tle1": "1 43437U 18039A   26166.15593834  .00000073  00000+0  48395-4 0  9993",
      "tle2": "2 43437  98.6250 233.7173 0000733  85.7408 274.3856 14.26734175423839"
    }
  ]
}